OBJECT_NAME,OBJECT_ID,EPOCH,MEAN_MOTION,ECCENTRICITY,INCLINATION,RA_OF_ASC_NODE,ARG_OF_PERICENTER,MEAN_ANOMALY,EPHEMERIS_TYPE,CLASSIFICATION_TYPE,NORAD_CAT_ID,ELEMENT_SET_NO,REV_AT_EPOCH,BSTAR,MEAN_MOTION_DOT,MEAN_MOTION_DDOT
ALOS-2,2014-029A,2026-07-07T20:02:09.013056,14.79472480,.0001594,97.9222,285.7037,91.2035,268.9359,0,U,39766,999,65463,.20141E-3,.1453E-4,0
KAZEOSAT 2,2014-033A,2026-07-07T20:12:40.838112,14.85495869,.0007039,97.5401,27.3617,248.6882,111.3583,0,U,40010,999,65202,.1165E-3,.956E-5,0
HODOYOSHI-4,2014-033B,2026-07-07T19:27:46.581120,14.88181749,.0022122,97.5463,12.6389,235.3262,124.5871,0,U,40011,999,65187,.22322E-3,.2014E-4,0
DEIMOS-2,2014-033D,2026-07-07T19:33:51.162336,14.93789473,.0001146,97.5804,62.5771,83.0019,277.1332,0,U,40013,999,64080,.17916E-3,.1845E-4,0
HODOYOSHI-3,2014-033F,2026-07-07T09:27:11.392704,14.85427120,.00313687,97.6437,350.6235,288.8819,70.8997,0,U,40015,999,65062,.94917014E-4,.772E-5,0
SPOT 7,2014-034A,2026-07-07T20:45:48.174624,14.60976327,.0001508,98.0614,250.8233,97.3810,262.7562,0,U,40053,999,64015,.27842E-4,.91E-6,0
SKYSAT-B,2014-037D,2026-07-07T18:26:49.276032,14.88080032,.0004951,98.3848,148.9086,197.6967,162.4076,0,U,40072,999,64902,.12532E-3,.1091E-4,0
WORLDVIEW-3 (WV-3),2014-048A,2026-07-07T18:51:08.865792,14.85056448,.0000708,97.8559,263.3336,166.5968,193.5266,0,U,40115,999,64496,.89075E-4,.707E-5,0
GAOFEN-2,2014-049A,2026-07-07T20:26:44.852064,14.80920238,.0007705,98.0094,253.0387,156.2470,203.9099,0,U,40118,999,64229,-.96157E-5,-.128E-5,0
YAOGAN-21,2014-053A,2026-07-07T21:02:18.270240,15.26689607,.0008685,97.1466,228.2261,32.4595,327.7177,0,U,40143,999,65811,.14921E-3,.3851E-4,0
YAOGAN-22,2014-063A,2026-07-06T23:00:54.173376,13.15531480,.00067439,100.7751,339.5625,142.3559,217.8025,0,U,40275,999,56241,.25508557E-4,-.37E-6,0
ASNARO,2014-070A,2026-07-07T20:03:55.183104,15.19752197,.0006741,97.3438,264.3948,107.1436,253.0538,0,U,40298,999,64714,.15174E-3,.3179E-4,0
YAOGAN-24,2014-072A,2026-07-07T21:24:27.300960,14.76115075,.0013952,98.1518,326.4061,193.2734,166.8110,0,U,40310,999,62677,.17269E-3,.1141E-4,0
CBERS 4,2014-079A,2026-07-07T21:04:23.791296,14.35514215,.0001094,98.3517,245.0596,49.1643,310.9637,0,U,40336,999,60692,-.26456E-4,-.118E-5,0
YAOGAN-26,2014-088A,2026-07-07T21:17:01.413024,15.48222540,.0003039,97.0651,188.6219,16.1670,343.9678,0,U,40362,999,64090,.23607E-3,.12349E-3,0
SMAP,2015-003A,2026-07-07T19:08:50.091072,14.63384877,.0001541,98.1279,195.6006,96.4771,263.6607,0,U,40376,999,61063,.74904E-4,.34E-5,0
KOMPSAT-3A,2015-014A,2026-07-07T20:10:38.203680,15.55103277,.0056875,97.6894,181.7286,101.4725,259.2923,0,U,40536,999,62502,.30134E-3,.21711E-3,0
SENTINEL-2A,2015-028A,2026-07-07T20:15:26.207712,14.30820429,.0001235,98.5674,263.4023,95.0056,265.1268,0,U,40697,999,57668,-.55154E-4,-.188E-5,0
GAOFEN-8,2015-030A,2026-07-07T20:38:37.571712,15.46753378,.0009792,97.6906,23.4815,118.0274,242.1966,0,U,40701,999,61464,.39592E-3,.1978E-3,0
CARBONITE 1 (CBNT-1),2015-032D,2026-07-07T19:41:27.943584,14.83652988,.0013291,97.6523,6.0245,223.0298,136.9879,0,U,40718,999,59240,.13466E-3,.1062E-4,0
YAOGAN-27,2015-040A,2026-07-07T20:35:53.709792,13.16072089,.0008334,100.1167,174.3444,161.3607,198.7813,0,U,40878,999,52038,.92761E-3,.31E-5,0
GAOFEN-9 01,2015-047A,2026-07-07T20:17:26.068704,14.82925297,.0028805,97.6266,223.6008,73.4655,286.9720,0,U,40894,999,58325,.10585E-3,.814E-5,0
YAOGAN-28,2015-064A,2026-07-07T21:24:12.430656,15.27696866,.0011967,97.3097,326.7380,115.5691,244.6787,0,U,41026,999,59384,.18712E-3,.5001E-4,0
YAOGAN-29,2015-069A,2026-07-07T21:22:10.354368,14.83100649,.0001285,98.0021,217.5547,21.0400,339.0866,0,U,41038,999,57369,-.10162E-4,-.137E-5,0
KENT RIDGE 1,2015-077B,2026-07-07T03:15:36.846432,15.23253362,.00081865,14.9789,117.6108,161.4249,198.6373,0,U,41167,999,58414,.10615178E-3,.3355E-4,0
GAOFEN-4,2015-083A,2026-07-07T21:05:35.632896,1.00271238,.0004278,0.4074,83.8625,117.1717,146.9139,0,U,41194,999,3873,0,-.32E-5,0
JASON-3,2016-002A,2026-07-07T17:46:30.419904,12.87628198,.0008246,66.0418,82.6253,271.4476,88.5598,0,U,41240,999,48989,-.31284E-5,-.63E-6,0
SENTINEL-3A,2016-011A,2026-07-07T18:21:03.319200,14.26738386,.000141,98.6240,255.8518,92.4321,267.7020,0,U,41335,999,54099,.48594E-4,.74E-6,0
ZIYUAN 3-02 (ZY 3-02),2016-033A,2026-07-07T20:14:21.371424,15.21385854,.0013311,97.3826,264.2204,211.2284,148.8162,0,U,41556,999,56112,.15078E-3,.3319E-4,0
CARTOSAT-2C,2016-040A,2026-07-07T20:58:10.003296,15.19225716,.0010104,97.4468,248.5659,66.8615,293.3683,0,U,41599,999,55685,.84382E-4,.1711E-4,0
SKYSAT-C1,2016-040C,2026-07-06T14:58:56.637696,15.36647042,.00012336,96.9556,218.2931,14.2930,345.8350,0,U,41601,999,56085,.21640269E-3,.7669E-4,0
