ALOS-2                  
1 39766U 14029A   26188.83482654  .00001453  00000+0  20141-3 0  9995
2 39766  97.9222 285.7037 0001594  91.2035 268.9359 14.79472480654637
KAZEOSAT 2              
1 40010U 14033A   26188.84213933  .00000956  00000+0  11650-3 0  9999
2 40010  97.5401  27.3617 0007039 248.6882 111.3583 14.85495869652022
HODOYOSHI-4             
1 40011U 14033B   26188.81095580  .00002014  00000+0  22322-3 0  9998
2 40011  97.5463  12.6389 0022122 235.3262 124.5871 14.88181749651879
DEIMOS-2                
1 40013U 14033D   26188.81517549  .00001845  00000+0  17916-3 0  9998
2 40013  97.5804  62.5771 0001146  83.0019 277.1332 14.93789473640802
HODOYOSHI-3             
1 40015U 14033F   26188.39388186  .00000772  00000+0  94917-4 0  9991
2 40015  97.6437 350.6235 0031368 288.8819  70.8997 14.85427120650620
SPOT 7                  
1 40053U 14034A   26188.86514091  .00000091  00000+0  27842-4 0  9999
2 40053  98.0614 250.8233 0001508  97.3810 262.7562 14.60976327640158
SKYSAT-B                
1 40072U 14037D   26188.76862588  .00001091  00000+0  12532-3 0  9999
2 40072  98.3848 148.9086 0004951 197.6967 162.4076 14.88080032649026
WORLDVIEW-3 (WV-3)      
1 40115U 14048A   26188.78551928  .00000707  00000+0  89075-4 0  9994
2 40115  97.8559 263.3336 0000708 166.5968 193.5266 14.85056448644964
GAOFEN-2                
1 40118U 14049A   26188.85190801 -.00000128  00000+0 -96157-5 0  9994
2 40118  98.0094 253.0387 0007705 156.2470 203.9099 14.80920238642290
YAOGAN-21               
1 40143U 14053A   26188.87660035  .00003851  00000+0  14921-3 0  9991
2 40143  97.1466 228.2261 0008685  32.4595 327.7177 15.26689607658110
YAOGAN-22               
1 40275U 14063A   26187.95896034 -.00000037  00000+0  25509-4 0  9995
2 40275 100.7751 339.5625 0006743 142.3559 217.8025 13.15531480562417
ASNARO                  
1 40298U 14070A   26188.83605536  .00003179  00000+0  15174-3 0  9996
2 40298  97.3438 264.3948 0006741 107.1436 253.0538 15.19752197647140
YAOGAN-24               
1 40310U 14072A   26188.89198265  .00001141  00000+0  17269-3 0  9999
2 40310  98.1518 326.4061 0013952 193.2734 166.8110 14.76115075626771
CBERS 4                 
1 40336U 14079A   26188.87805314 -.00000118  00000+0 -26456-4 0  9996
2 40336  98.3517 245.0596 0001094  49.1643 310.9637 14.35514215606926
YAOGAN-26               
1 40362U 14088A   26188.88682191  .00012349  00000+0  23607-3 0  9993
2 40362  97.0651 188.6219 0003039  16.1670 343.9678 15.48222540640908
SMAP                    
1 40376U 15003A   26188.79780198  .00000340  00000+0  74904-4 0  9997
2 40376  98.1279 195.6006 0001541  96.4771 263.6607 14.63384877610637
KOMPSAT-3A              
1 40536U 15014A   26188.84071995  .00021711  00000+0  30134-3 0  9992
2 40536  97.6894 181.7286 0056875 101.4725 259.2923 15.55103277625020
SENTINEL-2A             
1 40697U 15028A   26188.84405333 -.00000188  00000+0 -55154-4 0  9999
2 40697  98.5674 263.4023 0001235  95.0056 265.1268 14.30820429576688
GAOFEN-8                
1 40701U 15030A   26188.86015708  .00019780  00000+0  39592-3 0  9996
2 40701  97.6906  23.4815 0009792 118.0274 242.1966 15.46753378614644
CARBONITE 1 (CBNT-1)    
1 40718U 15032D   26188.82046231  .00001062  00000+0  13466-3 0  9993
2 40718  97.6523   6.0245 0013291 223.0298 136.9879 14.83652988592400
YAOGAN-27               
1 40878U 15040A   26188.85826053  .00000310  00000+0  92761-3 0  9990
2 40878 100.1167 174.3444 0008334 161.3607 198.7813 13.16072089520386
GAOFEN-9 01             
1 40894U 15047A   26188.84544061  .00000814  00000+0  10585-3 0  9993
2 40894  97.6266 223.6008 0028805  73.4655 286.9720 14.82925297583253
YAOGAN-28               
1 41026U 15064A   26188.89181054  .00005001  00000+0  18712-3 0  9997
2 41026  97.3097 326.7380 0011967 115.5691 244.6787 15.27696866593844
YAOGAN-29               
1 41038U 15069A   26188.89039762 -.00000137  00000+0 -10162-4 0  9992
2 41038  98.0021 217.5547 0001285  21.0400 339.0866 14.83100649573693
KENT RIDGE 1            
1 41167U 15077B   26188.13584313  .00003355  00000+0  10615-3 0  9993
2 41167  14.9789 117.6108 0008186 161.4249 198.6373 15.23253362584144
GAOFEN-4                
1 41194U 15083A   26188.87888464 -.00000320  00000+0  00000+0 0  9998
2 41194   0.4074  83.8625 0004278 117.1717 146.9139  1.00271238 38732
JASON-3                 
1 41240U 16002A   26188.74062986 -.00000063  00000+0 -31284-5 0  9990
2 41240  66.0418  82.6253 0008246 271.4476  88.5598 12.87628198489898
SENTINEL-3A             
1 41335U 16011A   26188.76462175  .00000074  00000+0  48594-4 0  9992
2 41335  98.6240 255.8518 0001410  92.4321 267.7020 14.26738386540997
ZIYUAN 3-02 (ZY 3-02)   
1 41556U 16033A   26188.84330291  .00003319  00000+0  15078-3 0  9998
2 41556  97.3826 264.2204 0013311 211.2284 148.8162 15.21385854561124
CARTOSAT-2C             
1 41599U 16040A   26188.87372689  .00001711  00000+0  84382-4 0  9992
2 41599  97.4468 248.5659 0010104  66.8615 293.3683 15.19225716556857
SKYSAT-C1               
1 41601U 16040C   26187.62426664  .00007669  00000+0  21640-3 0  9996
2 41601  96.9556 218.2931 0001233  14.2930 345.8350 15.36647042560858
